{
  "type": "FeatureCollection",
  "features": [
    {
      "type": "Feature",
      "properties": {
        "norad_id": 39773,
        "name": "EUTELSAT 3B",
        "group": "eutelsat",
        "lat": -0.07094517719031108,
        "lon": -116.42113822908999,
        "alt_km": 35766.63861596205,
        "timestamp": "2025-12-08T10:52:02.620885+00:00",
        "meta_object_name": "EUTELSAT 3B",
        "meta_object_id": "2014-030A",
        "meta_epoch": "2025-12-07T22:12:37.894176",
        "meta_mean_motion": 1.00272098,
        "meta_eccentricity": 0.00046611,
        "meta_inclination": 0.0659,
        "meta_ra_of_asc_node": 14.1636,
        "meta_arg_of_pericenter": 218.029,
        "meta_mean_anomaly": 181.0073,
        "meta_ephemeris_type": 0,
        "meta_classification_type": "U",
        "meta_norad_cat_id": 39773,
        "meta_element_set_no": 999,
        "meta_rev_at_epoch": 4214,
        "meta_bstar": 0,
        "meta_mean_motion_dot": 2.3e-07,
        "meta_mean_motion_ddot": 0,
        "tle_line1": "1 39773U 14030A   25341.92543859  .00000023  00000+0  00000+0 0  9990",
        "tle_line2": "2 39773   0.0659  14.1636 0004661 218.0290 181.0073  1.00272098 42141"
      },
      "geometry": {
        "type": "Point",
        "coordinates": [
          -116.42113822908999,
          -0.07094517719031108
        ]
      }
    },
    {
      "type": "Feature",
      "properties": {
        "norad_id": 40425,
        "name": "EUTELSAT 115 WEST B",
        "group": "eutelsat",
        "lat": -0.006561349762939218,
        "lon": 125.57311433422802,
        "alt_km": 35786.216492357795,
        "timestamp": "2025-12-08T10:52:02.620897+00:00",
        "meta_object_name": "EUTELSAT 115 WEST B",
        "meta_object_id": "2015-010B",
        "meta_epoch": "2025-12-07T16:30:43.437600",
        "meta_mean_motion": 1.00266052,
        "meta_eccentricity": 3.733e-05,
        "meta_inclination": 0.0081,
        "meta_ra_of_asc_node": 146.5843,
        "meta_arg_of_pericenter": 315.8789,
        "meta_mean_anomaly": 107.045,
        "meta_ephemeris_type": 0,
        "meta_classification_type": "U",
        "meta_norad_cat_id": 40425,
        "meta_element_set_no": 999,
        "meta_rev_at_epoch": 3947,
        "meta_bstar": 0,
        "meta_mean_motion_dot": -2.1e-07,
        "meta_mean_motion_ddot": 0,
        "tle_line1": "1 40425U 15010B   25341.68800275 -.00000021  00000+0  00000+0 0  9995",
        "tle_line2": "2 40425   0.0081 146.5843 0000373 315.8789 107.0450  1.00266052 39473"
      },
      "geometry": {
        "type": "Point",
        "coordinates": [
          125.57311433422802,
          -0.006561349762939218
        ]
      }
    },
    {
      "type": "Feature",
      "properties": {
        "norad_id": 40875,
        "name": "EUTELSAT 8 WEST B",
        "group": "eutelsat",
        "lat": -0.07360015184223033,
        "lon": -127.54203637328696,
        "alt_km": 35770.40304127067,
        "timestamp": "2025-12-08T10:52:02.620909+00:00",
        "meta_object_name": "EUTELSAT 8 WEST B",
        "meta_object_id": "2015-039B",
        "meta_epoch": "2025-12-07T22:09:23.204736",
        "meta_mean_motion": 1.00271409,
        "meta_eccentricity": 0.00041404,
        "meta_inclination": 0.0645,
        "meta_ra_of_asc_node": 357.3754,
        "meta_arg_of_pericenter": 260.8721,
        "meta_mean_anomaly": 143.0508,
        "meta_ephemeris_type": 0,
        "meta_classification_type": "U",
        "meta_norad_cat_id": 40875,
        "meta_element_set_no": 999,
        "meta_rev_at_epoch": 3773,
        "meta_bstar": 0,
        "meta_mean_motion_dot": -6.2e-07,
        "meta_mean_motion_ddot": 0,
        "tle_line1": "1 40875U 15039B   25341.92318524 -.00000062  00000+0  00000+0 0  9998",
        "tle_line2": "2 40875   0.0645 357.3754 0004140 260.8721 143.0508  1.00271409 37735"
      },
      "geometry": {
        "type": "Point",
        "coordinates": [
          -127.54203637328696,
          -0.07360015184223033
        ]
      }
    },
    {
      "type": "Feature",
      "properties": {
        "norad_id": 41310,
        "name": "EUTELSAT 9B",
        "group": "eutelsat",
        "lat": -0.013776048770230863,
        "lon": -110.54669011198432,
        "alt_km": 35765.623886323854,
        "timestamp": "2025-12-08T10:52:02.620922+00:00",
        "meta_object_name": "EUTELSAT 9B",
        "meta_object_id": "2016-005A",
        "meta_epoch": "2025-12-07T20:31:33.917088",
        "meta_mean_motion": 1.00272959,
        "meta_eccentricity": 0.0005018,
        "meta_inclination": 0.0774,
        "meta_ra_of_asc_node": 76.0031,
        "meta_arg_of_pericenter": 192.6175,
        "meta_mean_anomaly": 125.1451,
        "meta_ephemeris_type": 0,
        "meta_classification_type": "U",
        "meta_norad_cat_id": 41310,
        "meta_element_set_no": 999,
        "meta_rev_at_epoch": 3619,
        "meta_bstar": 0,
        "meta_mean_motion_dot": 6.5e-07,
        "meta_mean_motion_ddot": 0,
        "tle_line1": "1 41310U 16005A   25341.85525367  .00000065  00000+0  00000+0 0  9996",
        "tle_line2": "2 41310   0.0774  76.0031 0005018 192.6175 125.1451  1.00272959 36194"
      },
      "geometry": {
        "type": "Point",
        "coordinates": [
          -110.54669011198432,
          -0.013776048770230863
        ]
      }
    },
    {
      "type": "Feature",
      "properties": {
        "norad_id": 41382,
        "name": "EUTELSAT 65 WEST A",
        "group": "eutelsat",
        "lat": -0.00013515462148980698,
        "lon": 175.21020738888413,
        "alt_km": 35787.12980973544,
        "timestamp": "2025-12-08T10:52:02.620934+00:00",
        "meta_object_name": "EUTELSAT 65 WEST A",
        "meta_object_id": "2016-014A",
        "meta_epoch": "2025-12-07T21:53:09.760128",
        "meta_mean_motion": 1.00269243,
        "meta_eccentricity": 0.00028633,
        "meta_inclination": 0.0495,
        "meta_ra_of_asc_node": 359.5474,
        "meta_arg_of_pericenter": 267.0396,
        "meta_mean_anomaly": 73.413,
        "meta_ephemeris_type": 0,
        "meta_classification_type": "U",
        "meta_norad_cat_id": 41382,
        "meta_element_set_no": 999,
        "meta_rev_at_epoch": 3561,
        "meta_bstar": 0,
        "meta_mean_motion_dot": -2.73e-06,
        "meta_mean_motion_ddot": 0,
        "tle_line1": "1 41382U 16014A   25341.91191852 -.00000273  00000+0  00000+0 0  9992",
        "tle_line2": "2 41382   0.0495 359.5474 0002863 267.0396  73.4130  1.00269243 35617"
      },
      "geometry": {
        "type": "Point",
        "coordinates": [
          175.21020738888413,
          -0.00013515462148980698
        ]
      }
    },
    {
      "type": "Feature",
      "properties": {
        "norad_id": 41589,
        "name": "EUTELSAT 117 WEST B",
        "group": "eutelsat",
        "lat": -0.009162964545484726,
        "lon": 123.44411545621846,
        "alt_km": 35785.64423891386,
        "timestamp": "2025-12-08T10:52:02.620946+00:00",
        "meta_object_name": "EUTELSAT 117 WEST B",
        "meta_object_id": "2016-038B",
        "meta_epoch": "2025-12-07T16:30:05.997888",
        "meta_mean_motion": 1.00264607,
        "meta_eccentricity": 5.814e-05,
        "meta_inclination": 0.0035,
        "meta_ra_of_asc_node": 146.5968,
        "meta_arg_of_pericenter": 345.3614,
        "meta_mean_anomaly": 75.2712,
        "meta_ephemeris_type": 0,
        "meta_classification_type": "U",
        "meta_norad_cat_id": 41589,
        "meta_element_set_no": 999,
        "meta_rev_at_epoch": 3474,
        "meta_bstar": 0,
        "meta_mean_motion_dot": -7e-08,
        "meta_mean_motion_ddot": 0,
        "tle_line1": "1 41589U 16038B   25341.68756942 -.00000007  00000+0  00000+0 0  9993",
        "tle_line2": "2 41589   0.0035 146.5968 0000581 345.3614  75.2712  1.00264607 34744"
      },
      "geometry": {
        "type": "Point",
        "coordinates": [
          123.44411545621846,
          -0.009162964545484726
        ]
      }
    },
    {
      "type": "Feature",
      "properties": {
        "norad_id": 42741,
        "name": "EUTELSAT 172B",
        "group": "eutelsat",
        "lat": 0.005609253613012286,
        "lon": 52.47048852563368,
        "alt_km": 35787.510176621225,
        "timestamp": "2025-12-08T10:52:02.620958+00:00",
        "meta_object_name": "EUTELSAT 172B",
        "meta_object_id": "2017-029B",
        "meta_epoch": "2025-12-07T21:18:06.958656",
        "meta_mean_motion": 1.00269558,
        "meta_eccentricity": 1.966e-05,
        "meta_inclination": 0.0106,
        "meta_ra_of_asc_node": 83.9614,
        "meta_arg_of_pericenter": 146.0074,
        "meta_mean_anomaly": 338.4721,
        "meta_ephemeris_type": 0,
        "meta_classification_type": "U",
        "meta_norad_cat_id": 42741,
        "meta_element_set_no": 999,
        "meta_rev_at_epoch": 3181,
        "meta_bstar": 0,
        "meta_mean_motion_dot": -3e-08,
        "meta_mean_motion_ddot": 0,
        "tle_line1": "1 42741U 17029B   25341.88758054 -.00000003  00000+0  00000+0 0  9999",
        "tle_line2": "2 42741   0.0106  83.9614 0000196 146.0074 338.4721  1.00269558 31813"
      },
      "geometry": {
        "type": "Point",
        "coordinates": [
          52.47048852563368,
          0.005609253613012286
        ]
      }
    }
  ]
}